{"type": "FeatureCollection", "features": [ {"type": "Feature", "properties": {"norad_id": 40701, "name": "GAOFEN-8", "group": "resource", "lat": -6.20516570855546, "lon": -179.98961514734214, "alt_km": 453.90056021585497, "timestamp": "2025-12-26T08:37:54.227148+00:00", "meta": {"OBJECT_NAME": "GAOFEN-8", "OBJECT_ID": "2015-030A", "EPOCH": "2025-12-26T03:58:39.256032", "MEAN_MOTION": 15.39025008, "ECCENTRICITY": 0.0011543, "INCLINATION": 97.6905, "RA_OF_ASC_NODE": 178.9651, "ARG_OF_PERICENTER": 92.1915, "MEAN_ANOMALY": 268.0651, "EPHEMERIS_TYPE": 0, "CLASSIFICATION_TYPE": "U", "NORAD_CAT_ID": 40701, "ELEMENT_SET_NO": 999, "REV_AT_EPOCH": 58477, "BSTAR": 0.00017789, "MEAN_MOTION_DOT": 6.798e-05, "MEAN_MOTION_DDOT": 0}, "tle": {"line1": "1 40701U 15030A   25360.16573213  .00006798  00000+0  17789-3 0  9999", "line2": "2 40701  97.6905 178.9651 0011543  92.1915 268.0651 15.39025008584770"}}, "geometry": {"type": "Point", "coordinates": [-179.98961514734214, -6.20516570855546]}}, {"type": "Feature", "properties": {"norad_id": 40718, "name": "CARBONITE 1 (CBNT-1)", "group": "resource", "lat": 62.43136645347205, "lon": 165.90495154747506, "alt_km": 611.4219932315327, "timestamp": "2025-12-26T08:37:54.227158+00:00", "meta": {"OBJECT_NAME": "CARBONITE 1 (CBNT-1)", "OBJECT_ID": "2015-032D", "EPOCH": "2025-12-26T03:29:16.106784", "MEAN_MOTION": 14.82804843, "ECCENTRICITY": 0.0015414, "INCLINATION": 97.6407, "RA_OF_ASC_NODE": 180.5996, "ARG_OF_PERICENTER": 138.164, "MEAN_ANOMALY": 222.0755, "EPHEMERIS_TYPE": 0, "CLASSIFICATION_TYPE": "U", "NORAD_CAT_ID": 40718, "ELEMENT_SET_NO": 999, "REV_AT_EPOCH": 56369, "BSTAR": 0.0001732, "MEAN_MOTION_DOT": 1.353e-05, "MEAN_MOTION_DDOT": 0}, "tle": {"line1": "1 40718U 15032D   25360.14532531  .00001353  00000+0  17320-3 0  9998", "line2": "2 40718  97.6407 180.5996 0015414 138.1640 222.0755 14.82804843563695"}}, "geometry": {"type": "Point", "coordinates": [165.90495154747506, 62.43136645347205]}}, {"type": "Feature", "properties": {"norad_id": 40878, "name": "YAOGAN-27", "group": "resource", "lat": -59.369890908201036, "lon": 151.84125708766013, "alt_km": 1201.20985209823, "timestamp": "2025-12-26T08:37:54.227169+00:00", "meta": {"OBJECT_NAME": "YAOGAN-27", "OBJECT_ID": "2015-040A", "EPOCH": "2025-12-26T05:35:11.424768", "MEAN_MOTION": 13.16061695, "ECCENTRICITY": 0.0007563, "INCLINATION": 100.1024, "RA_OF_ASC_NODE": 349.2427, "ARG_OF_PERICENTER": 253.1817, "MEAN_ANOMALY": 106.8467, "EPHEMERIS_TYPE": 0, "CLASSIFICATION_TYPE": "U", "NORAD_CAT_ID": 40878, "ELEMENT_SET_NO": 999, "REV_AT_EPOCH": 49491, "BSTAR": 4.327e-05, "MEAN_MOTION_DOT": -2.6e-07, "MEAN_MOTION_DDOT": 0}, "tle": {"line1": "1 40878U 15040A   25360.23277112 -.00000026  00000+0  43270-4 0  9996", "line2": "2 40878 100.1024 349.2427 0007563 253.1817 106.8467 13.16061695494913"}}, "geometry": {"type": "Point", "coordinates": [151.84125708766013, -59.369890908201036]}}, {"type": "Feature", "properties": {"norad_id": 40894, "name": "GAOFEN-9 01", "group": "resource", "lat": -31.902007031951793, "lon": 43.52707089204994, "alt_km": 610.0063492325589, "timestamp": "2025-12-26T08:37:54.227179+00:00", "meta": {"OBJECT_NAME": "GAOFEN-9 01", "OBJECT_ID": "2015-047A", "EPOCH": "2025-12-26T05:32:10.172256", "MEAN_MOTION": 14.82454261, "ECCENTRICITY": 0.0027286, "INCLINATION": 97.6526, "RA_OF_ASC_NODE": 38.6026, "ARG_OF_PERICENTER": 350.5428, "MEAN_ANOMALY": 9.5268, "EPHEMERIS_TYPE": 0, "CLASSIFICATION_TYPE": "U", "NORAD_CAT_ID": 40894, "ELEMENT_SET_NO": 999, "REV_AT_EPOCH": 55456, "BSTAR": 0.0001434, "MEAN_MOTION_DOT": 1.106e-05, "MEAN_MOTION_DDOT": 0}, "tle": {"line1": "1 40894U 15047A   25360.23067329  .00001106  00000+0  14340-3 0  9992", "line2": "2 40894  97.6526  38.6026 0027286 350.5428   9.5268 14.82454261554561"}}, "geometry": {"type": "Point", "coordinates": [43.52707089204994, -31.902007031951793]}}, {"type": "Feature", "properties": {"norad_id": 41026, "name": "YAOGAN-28", "group": "resource", "lat": 15.964647862514033, "lon": 135.67324258434363, "alt_km": 489.42302210035814, "timestamp": "2025-12-26T08:37:54.227189+00:00", "meta": {"OBJECT_NAME": "YAOGAN-28", "OBJECT_ID": "2015-064A", "EPOCH": "2025-12-26T05:24:39.278304", "MEAN_MOTION": 15.24565035, "ECCENTRICITY": 0.0012651, "INCLINATION": 97.2815, "RA_OF_ASC_NODE": 137.6391, "ARG_OF_PERICENTER": 83.28, "MEAN_ANOMALY": 276.9877, "EPHEMERIS_TYPE": 0, "CLASSIFICATION_TYPE": "U", "NORAD_CAT_ID": 41026, "ELEMENT_SET_NO": 999, "REV_AT_EPOCH": 56430, "BSTAR": 0.00032352, "MEAN_MOTION_DOT": 7.918e-05, "MEAN_MOTION_DDOT": 0}, "tle": {"line1": "1 41026U 15064A   25360.22545461  .00007918  00000+0  32352-3 0  9996", "line2": "2 41026  97.2815 137.6391 0012651  83.2800 276.9877 15.24565035564303"}}, "geometry": {"type": "Point", "coordinates": [135.67324258434363, 15.964647862514033]}}, {"type": "Feature", "properties": {"norad_id": 41038, "name": "YAOGAN-29", "group": "resource", "lat": -57.524952378406326, "lon": -169.2258175915827, "alt_km": 627.1629080577059, "timestamp": "2025-12-26T08:37:54.227199+00:00", "meta": {"OBJECT_NAME": "YAOGAN-29", "OBJECT_ID": "2015-069A", "EPOCH": "2025-12-26T04:19:16.439232", "MEAN_MOTION": 14.82899112, "ECCENTRICITY": 9.71e-05, "INCLINATION": 98.0208, "RA_OF_ASC_NODE": 23.394, "ARG_OF_PERICENTER": 159.4459, "MEAN_ANOMALY": 200.6793, "EPHEMERIS_TYPE": 0, "CLASSIFICATION_TYPE": "U", "NORAD_CAT_ID": 41038, "ELEMENT_SET_NO": 999, "REV_AT_EPOCH": 54498, "BSTAR": 0.00013342, "MEAN_MOTION_DOT": 1.027e-05, "MEAN_MOTION_DDOT": 0}, "tle": {"line1": "1 41038U 15069A   25360.18005138  .00001027  00000+0  13342-3 0  9994", "line2": "2 41038  98.0208  23.3940 0000971 159.4459 200.6793 14.82899112544982"}}, "geometry": {"type": "Point", "coordinates": [-169.2258175915827, -57.524952378406326]}}, {"type": "Feature", "properties": {"norad_id": 41167, "name": "KENT RIDGE 1", "group": "resource", "lat": 14.768280401959645, "lon": -150.3115665696519, "alt_km": 499.96918957818707, "timestamp": "2025-12-26T08:37:54.227208+00:00", "meta": {"OBJECT_NAME": "KENT RIDGE 1", "OBJECT_ID": "2015-077B", "EPOCH": "2025-12-25T16:28:00.882048", "MEAN_MOTION": 15.21731933, "ECCENTRICITY": 0.00085371, "INCLINATION": 14.9792, "RA_OF_ASC_NODE": 115.0675, "ARG_OF_PERICENTER": 313.4673, "MEAN_ANOMALY": 46.4939, "EPHEMERIS_TYPE": 0, "CLASSIFICATION_TYPE": "U", "NORAD_CAT_ID": 41167, "ELEMENT_SET_NO": 999, "REV_AT_EPOCH": 55461, "BSTAR": 0.00017413045, "MEAN_MOTION_DOT": 4.822e-05, "MEAN_MOTION_DDOT": 0}, "tle": {"line1": "1 41167U 15077B   25359.68612132  .00004822  00000+0  17413-3 0  9996", "line2": "2 41167  14.9792 115.0675 0008537 313.4673  46.4939 15.21731933554619"}}, "geometry": {"type": "Point", "coordinates": [-150.3115665696519, 14.768280401959645]}}, {"type": "Feature", "properties": {"norad_id": 41194, "name": "GAOFEN-4", "group": "resource", "lat": -0.20041732673288665, "lon": -29.708590918334576, "alt_km": 35797.49981154571, "timestamp": "2025-12-26T08:37:54.227221+00:00", "meta": {"OBJECT_NAME": "GAOFEN-4", "OBJECT_ID": "2015-083A", "EPOCH": "2025-12-26T01:30:38.537856", "MEAN_MOTION": 1.00269501, "ECCENTRICITY": 0.0002823, "INCLINATION": 0.2023, "RA_OF_ASC_NODE": 81.9267, "ARG_OF_PERICENTER": 93.8654, "MEAN_ANOMALY": 47.3871, "EPHEMERIS_TYPE": 0, "CLASSIFICATION_TYPE": "U", "NORAD_CAT_ID": 41194, "ELEMENT_SET_NO": 999, "REV_AT_EPOCH": 3679, "BSTAR": 0, "MEAN_MOTION_DOT": -3.13e-06, "MEAN_MOTION_DDOT": 0}, "tle": {"line1": "1 41194U 15083A   25360.06294604 -.00000313  00000+0  00000+0 0  9999", "line2": "2 41194   0.2023  81.9267 0002823  93.8654  47.3871  1.00269501 36790"}}, "geometry": {"type": "Point", "coordinates": [-29.708590918334576, -0.20041732673288665]}}, {"type": "Feature", "properties": {"norad_id": 41240, "name": "JASON-3", "group": "resource", "lat": 64.05656224853126, "lon": -164.7584163456723, "alt_km": 1309.343404997765, "timestamp": "2025-12-26T08:37:54.227232+00:00", "meta": {"OBJECT_NAME": "JASON-3", "OBJECT_ID": "2016-002A", "EPOCH": "2025-12-26T00:45:44.858016", "MEAN_MOTION": 12.87627106, "ECCENTRICITY": 0.0007317, "INCLINATION": 66.0406, "RA_OF_ASC_NODE": 129.8791, "ARG_OF_PERICENTER": 271.6419, "MEAN_ANOMALY": 88.3762, "EPHEMERIS_TYPE": 0, "CLASSIFICATION_TYPE": "U", "NORAD_CAT_ID": 41240, "ELEMENT_SET_NO": 999, "REV_AT_EPOCH": 46495, "BSTAR": 0.00014638, "MEAN_MOTION_DOT": -2.5e-07, "MEAN_MOTION_DDOT": 0}, "tle": {"line1": "1 41240U 16002A   25360.03176919 -.00000025  00000+0  14638-3 0  9994", "line2": "2 41240  66.0406 129.8791 0007317 271.6419  88.3762 12.87627106464952"}}, "geometry": {"type": "Point", "coordinates": [-164.7584163456723, 64.05656224853126]}}, {"type": "Feature", "properties": {"norad_id": 41335, "name": "SENTINEL-3A", "group": "resource", "lat": 66.94182862015693, "lon": 44.2809652543769, "alt_km": 795.5551416620474, "timestamp": "2025-12-26T08:37:54.227242+00:00", "meta": {"OBJECT_NAME": "SENTINEL-3A", "OBJECT_ID": "2016-011A", "EPOCH": "2025-12-26T03:15:44.402112", "MEAN_MOTION": 14.2673572, "ECCENTRICITY": 8.83e-05, "INCLINATION": 98.6296, "RA_OF_ASC_NODE": 64.9615, "ARG_OF_PERICENTER": 97.6166, "MEAN_ANOMALY": 262.5115, "EPHEMERIS_TYPE": 0, "CLASSIFICATION_TYPE": "U", "NORAD_CAT_ID": 41335, "ELEMENT_SET_NO": 999, "REV_AT_EPOCH": 51338, "BSTAR": 7.0407e-05, "MEAN_MOTION_DOT": 1.27e-06, "MEAN_MOTION_DDOT": 0}, "tle": {"line1": "1 41335U 16011A   25360.13593058  .00000127  00000+0  70407-4 0  9996", "line2": "2 41335  98.6296  64.9615 0000883  97.6166 262.5115 14.26735720513382"}}, "geometry": {"type": "Point", "coordinates": [44.2809652543769, 66.94182862015693]}}]}